ORBCOMM FM20            
1 25416U 98046D   25253.19687030  .00000755  00000+0  29776-3 0  9996
2 25416  44.9937 138.6435 0001932   3.7922 356.2940 14.37360727416497
ORBCOMM FM16            
1 25417U 98046E   25253.16022409  .00001218  00000+0  43582-3 0  9993
2 25417  44.9931 129.2573 0005497  10.3476 349.7484 14.39116692416491
ORBCOMM FM15            
1 25418U 98046F   25253.36582975  .00001064  00000+0  38909-3 0  9991
2 25418  44.9965 133.6817 0005193  10.5478 349.5479 14.38759508416519
ORBCOMM FM14            
1 25419U 98046G   25253.36190150  .00001108  00000+0  40048-3 0  9998
2 25419  44.9953 131.6892 0003987   7.8901 352.2010 14.39135633416483
ORBCOMM FM13            
1 25420U 98046H   25253.41190843  .00000890  00000+0  33903-3 0  9994
2 25420  44.9969 140.2674 0006121 350.4240   9.6491 14.37849325415508
ORBCOMM FM21            
1 25475U 98053A   25253.36854602  .00000946  00000+0  36002-3 0  9991
2 25475  45.0072 226.0622 0003723 296.3913  63.6552 14.37499081409502
ORBCOMM FM22            
1 25476U 98053B   25253.41230674  .00001038  00000+0  38224-3 0  9996
2 25476  45.0064 220.0091 0005477 297.8997  62.1296 14.38581173409542
ORBCOMM FM23            
1 25477U 98053C   25253.35801865  .00001002  00000+0  37715-3 0  9991
2 25477  45.0071 228.1108 0004729 292.6264  67.4084 14.37699995409654
